#aV2013 11 17  0  0  0.00000000     288 DD+AD WGS84 FIT  NGA
## 1767      0.00000000   300.00000000 56613 0.0000000000000
+   31     1  2  3  4  5  6  7  8  9 10 11 12 13 14 15 16 17
+         18 19 20 21 22 23 24 25 26 27 28 29 31 32  0  0  0
+          0  0  0  0  0  0  0  0  0  0  0  0  0  0  0  0  0
+          0  0  0  0  0  0  0  0  0  0  0  0  0  0  0  0  0
+          0  0  0  0  0  0  0  0  0  0  0  0  0  0  0  0  0
++         2  2  2  2  2  2  2  2  2  2  2  2  2  2  2  2  2
++         2  2  2  2  2  2  2  2  2  2  2  2  2  2  2  0  0
++         0  0  0  0  0  0  0  0  0  0  0  0  0  0  0  0  0
++         0  0  0  0  0  0  0  0  0  0  0  0  0  0  0  0  0
++         0  0  0  0  0  0  0  0  0  0  0  0  0  0  0  0  0
%c cc cc ccc ccc cccc cccc cccc cccc ccccc ccccc ccccc ccccc
%c cc cc ccc ccc cccc cccc cccc cccc ccccc ccccc ccccc ccccc
%f  0.0000000  0.000000000  0.00000000000  0.000000000000000
%f  0.0000000  0.000000000  0.00000000000  0.000000000000000
%i    0    0    0    0      0      0      0      0         0
%i    0    0    0    0      0      0      0      0         0
/*      NGA, ST. LOUIS,MO.                                  
/*   EPHEMERIS COMPUTED FROM  1 DAYS OF DATA
/*   EPOCHA SMOOTHER  
/* CCCCCCCCCCCCCCCCCCCCCCCCCCCCCCCCCCCCCCCCCCCCCCCCCCCCCCCCC
*  2013 11 17 15 15  0.00000000                                                 
P  1  21218.633632  10762.187869  11886.767429     94.977660                    
V  1   8529.903265  12683.762151 -26523.395470      0.032304                    
P  2 -12275.153027 -22166.444971   9016.705290    461.867646                    
V  2   9629.348775   5994.446515  28097.690227      0.021392                    
P  3  11412.684567  12276.920803 -21172.549521    287.446031                    
V  3 -23729.297878   9947.203409  -7031.678939      0.051516                    
P  4    680.888966 -18877.433568  18265.227897      3.288996                    
V  4  17887.834956  16113.916823  15977.580680      0.004137                    
P  5  -4503.015793 -21549.245436 -14784.650532   -397.377407                    
V  5   7832.021323 -17267.725582  22994.431100      0.007266                    
P  6   3624.336882  15160.812609 -21439.577907    153.822340                    
V  6 -26370.267506   7570.822950   1279.269128      0.171414                    
P  7  16227.428299  -2995.387230 -20815.998006    281.730103                    
V  7  17088.181541  20223.079005  10064.074083      0.041719                    
P  8   8234.728251 -12506.616153 -21710.151595      9.938299                    
V  8  16943.705747  22190.275346  -6901.547504      0.002497                    
P  9   7157.594760 -13859.730768 -22008.441032    283.751697                    
V  9  18411.781453  19269.660082  -6436.293103      0.028399                    
P 10   8605.131449 -24860.448249    648.469025   -102.173027                    
V 10   3200.139534   2320.571944  31622.193955     -0.015965                    
P 11  23555.026058  12456.142080    995.110216   -438.768545                    
V 11   -816.070612   5108.863114 -29908.288137     -0.033962                    
P 12 -13414.776954  -5943.758281  22098.719512    168.638989                    
V 12   9254.134253 -26524.167440  -1312.191355      0.022774                    
P 13  25905.606482  -5350.177838  -3274.770817     58.909987                    
V 13   4191.079843   1568.291472  31720.577041     -0.038584                    
P 14 -13933.285441  14298.150513  17659.962143    210.385016                    
V 14 -21998.757332   1839.840296 -19221.611776     -0.010588                    
P 15 -21458.269378  -5601.360304 -14848.831770   -147.611083                    
V 15  17535.480430  -7022.190240 -22468.527830     -0.019506                    
P 16   2984.147177  21283.588604 -15406.247286   -241.556670                    
V 16  -8329.034073  17809.605338  23363.078147      0.010775                    
P 17  14095.809626 -14659.815186  17184.282469    -41.621924                    
V 17  21409.074575  -2212.901937 -19950.054228     -0.036765                    
P 18 -15867.212455  15108.008798 -14352.004466    285.457842                    
V 18   2538.580159 -19282.642418 -22785.706419      0.021050                    
P 19  19563.994901   8696.962272 -16109.697934   -419.222455                    
V 19 -19681.694346   4153.584589 -21403.293907     -0.026712                    
P 20  15949.948306   1113.787689  21017.640822    137.623363                    
V 20  -6109.493387  26569.740112   3277.491318      0.029103                    
P 21 -15158.779715   6031.515313 -20438.322220   -328.932077                    
V 21 -18160.440869 -20463.427419   6731.936117     -0.017791                    
P 22 -10835.196168  23700.239786  -4504.804524    195.690944                    
V 22  -2075.657503  -6934.247780 -30314.304638      0.022091                    
P 23  25556.183649    313.441729   8047.684004     29.367982                    
V 23  -9242.481521   4531.975925  29120.715092     -0.033673                    
P 24 -21081.411978 -14042.871780   8094.475138    -17.551719                    
V 24  -5116.202923  -9292.549516 -29368.988691     -0.007406                    
P 25 -16175.783536   8855.520945  19018.907073    167.406318                    
V 25   5869.361902 -23579.023462  16025.083935      0.031592                    
P 26  -9137.275224 -13546.557972 -21646.225149    246.738049                    
V 26  25616.618078  -3682.982695  -8464.904440     -0.102530                    
P 27   7136.507820  13791.221447 -21559.093130    -58.928335                    
V 27 -26557.845499   6540.210482  -4591.479295     -0.034588                    
P 28  13012.495954 -21849.463519  -6751.154953    309.524172                    
V 28  -1261.031271   9559.857619 -30839.349145      0.031204                    
P 29 -26262.633039   3499.961238   1586.965733    487.770214                    
V 29   1484.069695  -2931.933095  31843.436159      0.029639                    
P 31   1271.382666  19646.477372  17856.273423    329.816090                    
V 31 -15842.880512 -15899.124208  19085.682112      0.006391                    
P 32  10352.119039  13620.911041  20529.052637   -528.321852                    
V 32 -10397.205846  23603.246129  -9926.051488      0.046396                    
EOF
